[{"OBJECT_NAME":"STARLINK-30074","OBJECT_ID":"2023-113P","EPOCH":"2026-03-09T22:00:01.999584","MEAN_MOTION":15.22038935,"ECCENTRICITY":0.00020108,"INCLINATION":42.9996,"RA_OF_ASC_NODE":14.6701,"ARG_OF_PERICENTER":257.9675,"MEAN_ANOMALY":10.6717,"EPHEMERIS_TYPE":0,"CLASSIFICATION_TYPE":"U","NORAD_CAT_ID":57508,"ELEMENT_SET_NO":999,"REV_AT_EPOCH":578,"BSTAR":0.037058477,"MEAN_MOTION_DOT":0.0093455,"MEAN_MOTION_DDOT":0},{"OBJECT_NAME":"OBJECT C","OBJECT_ID":"2024-085C","EPOCH":"2026-03-09T22:49:58.289376","MEAN_MOTION":15.31893958,"ECCENTRICITY":0.00283931,"INCLINATION":97.3357,"RA_OF_ASC_NODE":145.6975,"ARG_OF_PERICENTER":37.3887,"MEAN_ANOMALY":322.9323,"EPHEMERIS_TYPE":0,"CLASSIFICATION_TYPE":"U","NORAD_CAT_ID":59679,"ELEMENT_SET_NO":999,"REV_AT_EPOCH":10244,"BSTAR":0.00039740634,"MEAN_MOTION_DOT":0.0001232,"MEAN_MOTION_DDOT":0}]
